[{"OBJECT_NAME":"STARLINK-3148","OBJECT_ID":"2021-115N","EPOCH":"2026-03-09T12:45:29.556576","MEAN_MOTION":15.08843633,"ECCENTRICITY":0.0001451,"INCLINATION":53.2182,"RA_OF_ASC_NODE":149.7179,"ARG_OF_PERICENTER":105.4644,"MEAN_ANOMALY":254.6508,"EPHEMERIS_TYPE":0,"CLASSIFICATION_TYPE":"U","NORAD_CAT_ID":49736,"ELEMENT_SET_NO":999,"REV_AT_EPOCH":23551,"BSTAR":3.4553316e-5,"MEAN_MOTION_DOT":2.62e-6,"MEAN_MOTION_DDOT":0},{"OBJECT_NAME":"COSMOS 886 DEB","OBJECT_ID":"1976-126BY","EPOCH":"2026-03-09T15:12:54.874944","MEAN_MOTION":13.31069333,"ECCENTRICITY":0.0856265,"INCLINATION":65.8136,"RA_OF_ASC_NODE":247.1366,"ARG_OF_PERICENTER":73.8679,"MEAN_ANOMALY":295.4822,"EPHEMERIS_TYPE":0,"CLASSIFICATION_TYPE":"U","NORAD_CAT_ID":18907,"ELEMENT_SET_NO":999,"REV_AT_EPOCH":83453,"BSTAR":0.00052411479,"MEAN_MOTION_DOT":2.066e-5,"MEAN_MOTION_DDOT":0}]
